start=new Date('2021-12-19T00:00:00.000Z').valueOf();
sats=[{"ECCENTRICITY":"0.00014350","ARG_OF_PERICENTER":"100.0452","PERIOD":"95.592","MEAN_ELEMENT_THEORY":"SGP4","APOAPSIS":"548.221","EPHEMERIS_TYPE":"0","MEAN_MOTION_DOT":"-0.00000753","DECAY_DATE":null,"INCLINATION":"53.0535","COUNTRY_CODE":"US","MEAN_MOTION_DDOT":"0.0000000000000","NORAD_CAT_ID":"47607","RA_OF_ASC_NODE":"93.7012","MEAN_ANOMALY":"260.0699","FILE":"3243814","BSTAR":"-0.00003166100000","OBJECT_ID":"2021-009BM","OBJECT_TYPE":"PAYLOAD","SEMIMAJOR_AXIS":"6925.362","CLASSIFICATION_TYPE":"U","TIME_SYSTEM":"UTC","TLE_LINE2":"2 47607  53.0535  93.7012 0001435 100.0452 260.0699 15.06395631 49121","PERIAPSIS":"546.233","OBJECT_NAME":"STARLINK-2025","TLE_LINE1":"1 47607U 21009BM  21352.73969801 -.00000753  00000-0 -31661-4 0  9990","SITE":"AFETR","REF_FRAME":"TEME","REV_AT_EPOCH":"4912","EPOCH":"2021-12-18T17:45:09.908064","MEAN_MOTION":"15.06395631","CENTER_NAME":"EARTH","GP_ID":"191947270","LAUNCH_DATE":"2021-02-04","RCS_SIZE":"LARGE","ELEMENT_SET_NO":"999"},{"TLE_LINE2":"2 47620  53.0542 153.3323 0002620  90.6696 269.4593 15.06398672 47079","PERIAPSIS":"545.403","TIME_SYSTEM":"UTC","SEMIMAJOR_AXIS":"6925.353","OBJECT_TYPE":"PAYLOAD","CLASSIFICATION_TYPE":"U","TLE_LINE1":"1 47620U 21012A   21352.82264365 -.00001096  00000-0 -54676-4 0  9994","OBJECT_NAME":"STARLINK-1528","MEAN_ANOMALY":"269.4593","RA_OF_ASC_NODE":"153.3323","NORAD_CAT_ID":"47620","BSTAR":"-0.00005467600000","FILE":"3243737","OBJECT_ID":"2021-012A","GP_ID":"191946086","ELEMENT_SET_NO":"999","RCS_SIZE":"LARGE","LAUNCH_DATE":"2021-02-16","SITE":"AFETR","CENTER_NAME":"EARTH","MEAN_MOTION":"15.06398672","EPOCH":"2021-12-18T19:44:36.411360","REF_FRAME":"TEME","REV_AT_EPOCH":"4707","MEAN_MOTION_DOT":"-0.00001096","EPHEMERIS_TYPE":"0","APOAPSIS":"549.032","ECCENTRICITY":"0.00026200","MEAN_ELEMENT_THEORY":"SGP4","PERIOD":"95.592","ARG_OF_PERICENTER":"90.6696","MEAN_MOTION_DDOT":"0.0000000000000","COUNTRY_CODE":"US","DECAY_DATE":null,"INCLINATION":"53.0542"},{"LAUNCH_DATE":"2021-02-16","RCS_SIZE":"LARGE","ELEMENT_SET_NO":"999","GP_ID":"191942133","CENTER_NAME":"EARTH","REF_FRAME":"TEME","EPOCH":"2021-12-18T11:36:18.834912","REV_AT_EPOCH":"4754","MEAN_MOTION":"15.06400723","SITE":"AFETR","OBJECT_NAME":"STARLINK-1609","TLE_LINE1":"1 47621U 21012B   21352.48355133  .00001090  00000-0  92072-4 0  9995","TIME_SYSTEM":"UTC","TLE_LINE2":"2 47621  53.0549 154.8513 0002235  87.4195 272.7050 15.06400723 47542","PERIAPSIS":"545.664","SEMIMAJOR_AXIS":"6925.346","OBJECT_TYPE":"PAYLOAD","CLASSIFICATION_TYPE":"U","FILE":"3243681","OBJECT_ID":"2021-012B","BSTAR":"0.00009207200000","MEAN_ANOMALY":"272.7050","RA_OF_ASC_NODE":"154.8513","NORAD_CAT_ID":"47621","MEAN_MOTION_DDOT":"0.0000000000000","COUNTRY_CODE":"US","INCLINATION":"53.0549","DECAY_DATE":null,"EPHEMERIS_TYPE":"0","MEAN_MOTION_DOT":"0.00001090","APOAPSIS":"548.759","PERIOD":"95.592","MEAN_ELEMENT_THEORY":"SGP4","ARG_OF_PERICENTER":"87.4195","ECCENTRICITY":"0.00022350"},{"FILE":"3243681","BSTAR":"0.00008980700000","OBJECT_ID":"2021-012C","MEAN_ANOMALY":"268.5657","NORAD_CAT_ID":"47622","RA_OF_ASC_NODE":"154.5600","TLE_LINE1":"1 47622U 21012C   21352.54621927  .00001056  00000-0  89807-4 0  9994","OBJECT_NAME":"STARLINK-1645","TIME_SYSTEM":"UTC","PERIAPSIS":"545.449","TLE_LINE2":"2 47622  53.0545 154.5600 0002563  91.5626 268.5657 15.06396661 47543","SEMIMAJOR_AXIS":"6925.359","OBJECT_TYPE":"PAYLOAD","CLASSIFICATION_TYPE":"U","CENTER_NAME":"EARTH","REF_FRAME":"TEME","EPOCH":"2021-12-18T13:06:33.344928","REV_AT_EPOCH":"4754","MEAN_MOTION":"15.06396661","SITE":"AFETR","LAUNCH_DATE":"2021-02-16","RCS_SIZE":"LARGE","ELEMENT_SET_NO":"999","GP_ID":"191942885","PERIOD":"95.592","MEAN_ELEMENT_THEORY":"SGP4","ARG_OF_PERICENTER":"91.5626","ECCENTRICITY":"0.00025630","EPHEMERIS_TYPE":"0","MEAN_MOTION_DOT":"0.00001056","APOAPSIS":"548.999","INCLINATION":"53.0545","DECAY_DATE":null,"MEAN_MOTION_DDOT":"0.0000000000000","COUNTRY_CODE":"US"},{"COUNTRY_CODE":"US","MEAN_MOTION_DDOT":"0.0000000000000","INCLINATION":"53.0561","DECAY_DATE":null,"APOAPSIS":"547.918","MEAN_MOTION_DOT":"-0.00000735","EPHEMERIS_TYPE":"0","ARG_OF_PERICENTER":"94.6015","MEAN_ELEMENT_THEORY":"SGP4","PERIOD":"95.592","ECCENTRICITY":"0.00010290","RCS_SIZE":"LARGE","ELEMENT_SET_NO":"999","LAUNCH_DATE":"2021-02-16","GP_ID":"191942636","MEAN_MOTION":"15.06402718","REV_AT_EPOCH":"4846","REF_FRAME":"TEME","EPOCH":"2021-12-18T13:23:05.229024","CENTER_NAME":"EARTH","SITE":"AFETR","TLE_LINE1":"1 47623U 21012D   21352.55769941 -.00000735  00000-0 -30446-4 0  9995","OBJECT_NAME":"STARLINK-1655","SEMIMAJOR_AXIS":"6925.340","OBJECT_TYPE":"PAYLOAD","CLASSIFICATION_TYPE":"U","TLE_LINE2":"2 47623  53.0561  89.5106 0001029  94.6015 265.5092 15.06402718 48465","PERIAPSIS":"546.493","TIME_SYSTEM":"UTC","FILE":"3243681","BSTAR":"-0.00003044600000","OBJECT_ID":"2021-012D","NORAD_CAT_ID":"47623","RA_OF_ASC_NODE":"89.5106","MEAN_ANOMALY":"265.5092"},{"TIME_SYSTEM":"UTC","TLE_LINE2":"2 47624  53.0552 133.3499 0001970  99.1374 260.9838 15.06417723 47358","PERIAPSIS":"545.795","OBJECT_TYPE":"PAYLOAD","CLASSIFICATION_TYPE":"U","SEMIMAJOR_AXIS":"6925.294","TLE_LINE1":"1 47624U 21012E   21352.81710680  .00001474  00000-0  11778-3 0  9996","OBJECT_NAME":"STARLINK-1669","MEAN_ANOMALY":"260.9838","RA_OF_ASC_NODE":"133.3499","NORAD_CAT_ID":"47624","BSTAR":"0.00011778000000","FILE":"3243781","OBJECT_ID":"2021-012E","GP_ID":"191946099","LAUNCH_DATE":"2021-02-16","RCS_SIZE":"LARGE","ELEMENT_SET_NO":"999","SITE":"AFETR","CENTER_NAME":"EARTH","REF_FRAME":"TEME","REV_AT_EPOCH":"4735","EPOCH":"2021-12-18T19:36:38.027520","MEAN_MOTION":"15.06417723","EPHEMERIS_TYPE":"0","MEAN_MOTION_DOT":"0.00001474","APOAPSIS":"548.524","ECCENTRICITY":"0.00019700","PERIOD":"95.591","MEAN_ELEMENT_THEORY":"SGP4","ARG_OF_PERICENTER":"99.1374","MEAN_MOTION_DDOT":"0.0000000000000","COUNTRY_CODE":"US","DECAY_DATE":null,"INCLINATION":"53.0552"},{"ARG_OF_PERICENTER":"94.4693","MEAN_ELEMENT_THEORY":"SGP4","PERIOD":"95.593","ECCENTRICITY":"0.00023160","APOAPSIS":"548.838","MEAN_MOTION_DOT":"0.00001419","EPHEMERIS_TYPE":"0","INCLINATION":"53.0548","DECAY_DATE":null,"COUNTRY_CODE":"US","MEAN_MOTION_DDOT":"0.0000000000000","FILE":"3243681","BSTAR":"0.00011417000000","OBJECT_ID":"2021-012F","NORAD_CAT_ID":"47625","RA_OF_ASC_NODE":"154.8324","MEAN_ANOMALY":"265.6560","OBJECT_NAME":"STARLINK-1704","TLE_LINE1":"1 47625U 21012F   21352.48722744  .00001419  00000-0  11417-3 0  9993","OBJECT_TYPE":"PAYLOAD","SEMIMAJOR_AXIS":"6925.369","CLASSIFICATION_TYPE":"U","PERIAPSIS":"545.630","TLE_LINE2":"2 47625  53.0548 154.8324 0002316  94.4693 265.6560 15.06393344 47532","TIME_SYSTEM":"UTC","MEAN_MOTION":"15.06393344","REF_FRAME":"TEME","REV_AT_EPOCH":"4753","EPOCH":"2021-12-18T11:41:36.450816","CENTER_NAME":"EARTH","SITE":"AFETR","RCS_SIZE":"LARGE","ELEMENT_SET_NO":"999","LAUNCH_DATE":"2021-02-16","GP_ID":"191941634"},{"MEAN_MOTION_DOT":"-0.00001663","EPHEMERIS_TYPE":"0","APOAPSIS":"548.720","MEAN_ELEMENT_THEORY":"SGP4","PERIOD":"95.591","ARG_OF_PERICENTER":"96.1588","ECCENTRICITY":"0.00022430","MEAN_MOTION_DDOT":"0.0000000000000","COUNTRY_CODE":"US","INCLINATION":"53.0565","DECAY_DATE":null,"TLE_LINE1":"1 47626U 21012G   21351.87535851 -.00001663  00000-0 -92693-4 0  9996","OBJECT_NAME":"STARLINK-1761","TLE_LINE2":"2 47626  53.0565 157.5668 0002243  96.1588 263.9657 15.06415284 46933","PERIAPSIS":"545.613","TIME_SYSTEM":"UTC","OBJECT_TYPE":"PAYLOAD","CLASSIFICATION_TYPE":"U","SEMIMAJOR_AXIS":"6925.302","FILE":"3243194","OBJECT_ID":"2021-012G","BSTAR":"-0.00009269300000","MEAN_ANOMALY":"263.9657","NORAD_CAT_ID":"47626","RA_OF_ASC_NODE":"157.5668","ELEMENT_SET_NO":"999","RCS_SIZE":"LARGE","LAUNCH_DATE":"2021-02-16","GP_ID":"191909381","CENTER_NAME":"EARTH","MEAN_MOTION":"15.06415284","REV_AT_EPOCH":"4693","REF_FRAME":"TEME","EPOCH":"2021-12-17T21:00:30.975264","SITE":"AFETR"},{"TLE_LINE1":"1 47627U 21012H   21352.91667824 -.00016066  00000-0 -10619-2 0  9998","OBJECT_NAME":"STARLINK-1972","PERIAPSIS":"546.435","TLE_LINE2":"2 47627  53.0545  57.9026 0001092  80.0232 112.9090 15.06407435 48410","TIME_SYSTEM":"UTC","CLASSIFICATION_TYPE":"U","OBJECT_TYPE":"PAYLOAD","SEMIMAJOR_AXIS":"6925.326","FILE":"3243738","BSTAR":"-0.00106190000000","OBJECT_ID":"2021-012H","MEAN_ANOMALY":"112.9090","RA_OF_ASC_NODE":"57.9026","NORAD_CAT_ID":"47627","ELEMENT_SET_NO":"999","RCS_SIZE":"MEDIUM","LAUNCH_DATE":"2021-02-16","GP_ID":"191945612","CENTER_NAME":"EARTH","MEAN_MOTION":"15.06407435","EPOCH":"2021-12-18T22:00:00.999936","REV_AT_EPOCH":"4841","REF_FRAME":"TEME","SITE":"AFETR","MEAN_MOTION_DOT":"-0.00016066","EPHEMERIS_TYPE":"0","APOAPSIS":"547.947","MEAN_ELEMENT_THEORY":"SGP4","PERIOD":"95.592","ARG_OF_PERICENTER":"80.0232","ECCENTRICITY":"0.00010920","MEAN_MOTION_DDOT":"0.0000000000000","COUNTRY_CODE":"US","INCLINATION":"53.0545","DECAY_DATE":null},{"MEAN_MOTION":"15.06397900","REF_FRAME":"TEME","EPOCH":"2021-12-18T12:13:27.484032","REV_AT_EPOCH":"4754","CENTER_NAME":"EARTH","SITE":"AFETR","RCS_SIZE":"LARGE","ELEMENT_SET_NO":"999","LAUNCH_DATE":"2021-02-16","GP_ID":"191941884","FILE":"3243681","BSTAR":"0.00009668900000","OBJECT_ID":"2021-012J","NORAD_CAT_ID":"47628","RA_OF_ASC_NODE":"154.7457","MEAN_ANOMALY":"268.7193","OBJECT_NAME":"STARLINK-1973","TLE_LINE1":"1 47628U 21012J   21352.50934588  .00001159  00000-0  96689-4 0  9996","OBJECT_TYPE":"PAYLOAD","SEMIMAJOR_AXIS":"6925.355","CLASSIFICATION_TYPE":"U","PERIAPSIS":"545.593","TLE_LINE2":"2 47628  53.0553 154.7457 0002349  91.4065 268.7193 15.06397900 47542","TIME_SYSTEM":"UTC","INCLINATION":"53.0553","DECAY_DATE":null,"COUNTRY_CODE":"US","MEAN_MOTION_DDOT":"0.0000000000000","ARG_OF_PERICENTER":"91.4065","MEAN_ELEMENT_THEORY":"SGP4","PERIOD":"95.592","ECCENTRICITY":"0.00023490","APOAPSIS":"548.847","MEAN_MOTION_DOT":"0.00001159","EPHEMERIS_TYPE":"0"}];
